GLOBALSTAR M057         
1 25943U 99058A   25188.67890670 -.00000040  00000+0  47791-3 0  9996
2 25943  51.9996 290.0513 0002979  69.7745 290.3425 12.24824695169441
GLOBALSTAR M059         
1 25944U 99058B   25189.35639741 -.00000089  00000+0 -33089-4 0  9993
2 25944  51.9998 149.9027 0000889 349.8386 177.5572 11.99980425165335
GLOBALSTAR M056         
1 25945U 99058C   25189.15300741 -.00000138  00000+0 -59075-3 0  9994
2 25945  51.9944 151.8744 0000788 239.0868 133.8618 12.04782351165193
GLOBALSTAR M031         
1 25946U 99058D   25189.31404469 -.00000102  00000+0 -11645-3 0  9997
2 25946  51.9978  42.5014 0000749 186.5778 344.2343 12.16038904167354
GLOBALSTAR M039         
1 25961U 99062A   25188.75178639 -.00000057  00000+0  25974-3 0  9991
2 25961  51.9818 206.0813 0002603  33.6225 326.4806 12.62329584182810
GLOBALSTAR M034         
1 25962U 99062B   25188.90245558 -.00000073  00000+0  12063-3 0  9997
2 25962  51.9896 317.5405 0014737  82.1823  67.9671 11.79446473140833
GLOBALSTAR M029         
1 25963U 99062C   25188.83157738 -.00000081  00000+0  67217-4 0  9993
2 25963  51.9819  39.3416 0002702 140.8119 232.6647 11.99898155171657
GLOBALSTAR M061         
1 25964U 99062D   25189.17652340 -.00000091  00000+0 -17357-3 0  9992
2 25964  51.9775 141.1401 0006412   3.3909   9.8141 11.76776465123943
